HULIANWANG DIGUI-132    
1 67240U 25311E   26019.02162773 -.00000029  00000+0  98274-4 0  9992
2 67240  50.0080 300.0204 0002556 351.8338   8.2517 13.87466545  3355
HULIANWANG DIGUI-133    
1 67241U 25311F   26019.01921438 -.00000013  00000+0  11135-3 0  9996
2 67241  50.0120 300.0209 0001654 358.6211   1.4682 13.87706822  3352
HULIANWANG DIGUI-134    
1 67242U 25311G   26018.94862988 -.00000017  00000+0  10791-3 0  9993
2 67242  50.0102 300.2877 0001404 336.5330  23.5503 13.87632425  3349
HULIANWANG DIGUI-135    
1 67243U 25311H   26018.95141129 -.00000023  00000+0  10345-3 0  9994
2 67243  50.0033 300.3054 0002847 349.6698  10.4140 13.87312384  3346
HULIANWANG DIGUI-136    
1 67244U 25311J   26019.01770786 -.00000018  00000+0  10687-3 0  9993
2 67244  50.0124 300.0213 0002163 343.4215  16.6612 13.87899832  3351
CZ-8A R/B               
1 67245U 25311K   26019.21591620  .00000002  00000+0  81109-4 0  9994
2 67245  50.0034 295.6931 0088989 165.5584 194.7898 14.12608588  3438
FENGYUN 4C              
1 67246U 25312A   26019.25071942 -.00000309  00000+0  00000+0 0  9997
2 67246   0.0668 237.8919 0002325  51.8957  52.0880  1.00264300   282
CZ-3B R/B               
1 67247U 25312B   26019.01369395  .00245907  10068-5  64151-3 0  9990
2 67247  28.4011 325.0045 7196382 194.1356 123.0037  2.45372587   568
2025-313A               
1 67248U 25313A   26019.30168643  .00001502  00000+0  15410-3 0  9991
2 67248  97.5623  95.1549 0280583  95.0092 268.3203 14.66807440  3192
2025-313B               
1 67249U 25313B   26019.27673059  .00004077  00000+0  31298-3 0  9992
2 67249  97.5314  95.2418 0297766  99.1471 264.3550 14.73224609  3204
2025-313C               
1 67250U 25313C   26019.24713423  .00016226  00000+0  15098-2 0  9999
2 67250  97.6358  95.8686 0162701 109.0917 252.7996 14.84798176  3228
2025-313D               
1 67251U 25313D   26019.25242037  .00002925  00000+0  25683-3 0  9992
2 67251  97.5869  95.8618 0152437 101.6365 260.2006 14.88765993  3232
