CCSDS_OMM_VERS = 2.0
CREATION_DATE  = 
ORIGINATOR     = 

OBJECT_NAME    = HULIANWANG DIGUI-132
OBJECT_ID      = 2025-311E
CENTER_NAME    = EARTH
REF_FRAME      = TEME
TIME_SYSTEM    = UTC
MEAN_ELEMENT_THEORY = SGP/SGP4

EPOCH          = 2026-01-19T00:31:08.635872
MEAN_MOTION    = 13.87466545
ECCENTRICITY   = .00025566
INCLINATION    = 50.0080
RA_OF_ASC_NODE = 300.0204
ARG_OF_PERICENTER = 351.8338
MEAN_ANOMALY   = 8.2517

EPHEMERIS_TYPE = 0
CLASSIFICATION_TYPE = U
NORAD_CAT_ID   = 67240
ELEMENT_SET_NO = 999
REV_AT_EPOCH   = 335
BSTAR          = .98274379E-4
MEAN_MOTION_DOT = -.29E-6
MEAN_MOTION_DDOT = 0

CCSDS_OMM_VERS = 2.0
CREATION_DATE  = 
ORIGINATOR     = 

OBJECT_NAME    = HULIANWANG DIGUI-133
OBJECT_ID      = 2025-311F
CENTER_NAME    = EARTH
REF_FRAME      = TEME
TIME_SYSTEM    = UTC
MEAN_ELEMENT_THEORY = SGP/SGP4

EPOCH          = 2026-01-19T00:27:40.122432
MEAN_MOTION    = 13.87706822
ECCENTRICITY   = .00016546
INCLINATION    = 50.0120
RA_OF_ASC_NODE = 300.0209
ARG_OF_PERICENTER = 358.6211
MEAN_ANOMALY   = 1.4682

EPHEMERIS_TYPE = 0
CLASSIFICATION_TYPE = U
NORAD_CAT_ID   = 67241
ELEMENT_SET_NO = 999
REV_AT_EPOCH   = 335
BSTAR          = .11134555E-3
MEAN_MOTION_DOT = -.13E-6
MEAN_MOTION_DDOT = 0

CCSDS_OMM_VERS = 2.0
CREATION_DATE  = 
ORIGINATOR     = 

OBJECT_NAME    = HULIANWANG DIGUI-134
OBJECT_ID      = 2025-311G
CENTER_NAME    = EARTH
REF_FRAME      = TEME
TIME_SYSTEM    = UTC
MEAN_ELEMENT_THEORY = SGP/SGP4

EPOCH          = 2026-01-18T22:46:01.621632
MEAN_MOTION    = 13.87632425
ECCENTRICITY   = .00014046
INCLINATION    = 50.0102
RA_OF_ASC_NODE = 300.2877
ARG_OF_PERICENTER = 336.5330
MEAN_ANOMALY   = 23.5503

EPHEMERIS_TYPE = 0
CLASSIFICATION_TYPE = U
NORAD_CAT_ID   = 67242
ELEMENT_SET_NO = 999
REV_AT_EPOCH   = 334
BSTAR          = .10791326E-3
MEAN_MOTION_DOT = -.17E-6
MEAN_MOTION_DDOT = 0

CCSDS_OMM_VERS = 2.0
CREATION_DATE  = 
ORIGINATOR     = 

OBJECT_NAME    = HULIANWANG DIGUI-135
OBJECT_ID      = 2025-311H
CENTER_NAME    = EARTH
REF_FRAME      = TEME
TIME_SYSTEM    = UTC
MEAN_ELEMENT_THEORY = SGP/SGP4

EPOCH          = 2026-01-18T22:50:01.935456
MEAN_MOTION    = 13.87312384
ECCENTRICITY   = .00028472
INCLINATION    = 50.0033
RA_OF_ASC_NODE = 300.3054
ARG_OF_PERICENTER = 349.6698
MEAN_ANOMALY   = 10.4140

EPHEMERIS_TYPE = 0
CLASSIFICATION_TYPE = U
NORAD_CAT_ID   = 67243
ELEMENT_SET_NO = 999
REV_AT_EPOCH   = 334
BSTAR          = .10345457E-3
MEAN_MOTION_DOT = -.23E-6
MEAN_MOTION_DDOT = 0

CCSDS_OMM_VERS = 2.0
CREATION_DATE  = 
ORIGINATOR     = 

OBJECT_NAME    = HULIANWANG DIGUI-136
OBJECT_ID      = 2025-311J
CENTER_NAME    = EARTH
REF_FRAME      = TEME
TIME_SYSTEM    = UTC
MEAN_ELEMENT_THEORY = SGP/SGP4

EPOCH          = 2026-01-19T00:25:29.959104
MEAN_MOTION    = 13.87899832
ECCENTRICITY   = .00021639
INCLINATION    = 50.0124
RA_OF_ASC_NODE = 300.0213
ARG_OF_PERICENTER = 343.4215
MEAN_ANOMALY   = 16.6612

EPHEMERIS_TYPE = 0
CLASSIFICATION_TYPE = U
NORAD_CAT_ID   = 67244
ELEMENT_SET_NO = 999
REV_AT_EPOCH   = 335
BSTAR          = .10686836E-3
MEAN_MOTION_DOT = -.18E-6
MEAN_MOTION_DDOT = 0

CCSDS_OMM_VERS = 2.0
CREATION_DATE  = 
ORIGINATOR     = 

OBJECT_NAME    = CZ-8A R/B
OBJECT_ID      = 2025-311K
CENTER_NAME    = EARTH
REF_FRAME      = TEME
TIME_SYSTEM    = UTC
MEAN_ELEMENT_THEORY = SGP/SGP4

EPOCH          = 2026-01-19T05:10:55.159680
MEAN_MOTION    = 14.12608588
ECCENTRICITY   = .00889893
INCLINATION    = 50.0034
RA_OF_ASC_NODE = 295.6931
ARG_OF_PERICENTER = 165.5584
MEAN_ANOMALY   = 194.7898

EPHEMERIS_TYPE = 0
CLASSIFICATION_TYPE = U
NORAD_CAT_ID   = 67245
ELEMENT_SET_NO = 999
REV_AT_EPOCH   = 343
BSTAR          = .81108586E-4
MEAN_MOTION_DOT = .2E-7
MEAN_MOTION_DDOT = 0

CCSDS_OMM_VERS = 2.0
CREATION_DATE  = 
ORIGINATOR     = 

OBJECT_NAME    = FENGYUN 4C
OBJECT_ID      = 2025-312A
CENTER_NAME    = EARTH
REF_FRAME      = TEME
TIME_SYSTEM    = UTC
MEAN_ELEMENT_THEORY = SGP/SGP4

EPOCH          = 2026-01-19T06:01:02.157888
MEAN_MOTION    = 1.00264300
ECCENTRICITY   = .00023259
INCLINATION    = 0.0668
RA_OF_ASC_NODE = 237.8919
ARG_OF_PERICENTER = 51.8957
MEAN_ANOMALY   = 52.0880

EPHEMERIS_TYPE = 0
CLASSIFICATION_TYPE = U
NORAD_CAT_ID   = 67246
ELEMENT_SET_NO = 999
REV_AT_EPOCH   = 28
BSTAR          = 0
MEAN_MOTION_DOT = -.309E-5
MEAN_MOTION_DDOT = 0

CCSDS_OMM_VERS = 2.0
CREATION_DATE  = 
ORIGINATOR     = 

OBJECT_NAME    = CZ-3B R/B
OBJECT_ID      = 2025-312B
CENTER_NAME    = EARTH
REF_FRAME      = TEME
TIME_SYSTEM    = UTC
MEAN_ELEMENT_THEORY = SGP/SGP4

EPOCH          = 2026-01-19T00:19:43.157280
MEAN_MOTION    = 2.45372587
ECCENTRICITY   = .71963828
INCLINATION    = 28.4011
RA_OF_ASC_NODE = 325.0045
ARG_OF_PERICENTER = 194.1356
MEAN_ANOMALY   = 123.0037

EPHEMERIS_TYPE = 0
CLASSIFICATION_TYPE = U
NORAD_CAT_ID   = 67247
ELEMENT_SET_NO = 999
REV_AT_EPOCH   = 56
BSTAR          = .64150647E-3
MEAN_MOTION_DOT = .245907E-2
MEAN_MOTION_DDOT = .1006807E-5

CCSDS_OMM_VERS = 2.0
CREATION_DATE  = 
ORIGINATOR     = 

OBJECT_NAME    = 2025-313A
OBJECT_ID      = 2025-313A
CENTER_NAME    = EARTH
REF_FRAME      = TEME
TIME_SYSTEM    = UTC
MEAN_ELEMENT_THEORY = SGP/SGP4

EPOCH          = 2026-01-19T07:14:25.707552
MEAN_MOTION    = 14.66807440
ECCENTRICITY   = .02805835
INCLINATION    = 97.5623
RA_OF_ASC_NODE = 95.1549
ARG_OF_PERICENTER = 95.0092
MEAN_ANOMALY   = 268.3203

EPHEMERIS_TYPE = 0
CLASSIFICATION_TYPE = U
NORAD_CAT_ID   = 67248
ELEMENT_SET_NO = 999
REV_AT_EPOCH   = 319
BSTAR          = .15409532E-3
MEAN_MOTION_DOT = .1502E-4
MEAN_MOTION_DDOT = 0

CCSDS_OMM_VERS = 2.0
CREATION_DATE  = 
ORIGINATOR     = 

OBJECT_NAME    = 2025-313B
OBJECT_ID      = 2025-313B
CENTER_NAME    = EARTH
REF_FRAME      = TEME
TIME_SYSTEM    = UTC
MEAN_ELEMENT_THEORY = SGP/SGP4

EPOCH          = 2026-01-19T06:38:29.522976
MEAN_MOTION    = 14.73224609
ECCENTRICITY   = .02977665
INCLINATION    = 97.5314
RA_OF_ASC_NODE = 95.2418
ARG_OF_PERICENTER = 99.1471
MEAN_ANOMALY   = 264.3550

EPHEMERIS_TYPE = 0
CLASSIFICATION_TYPE = U
NORAD_CAT_ID   = 67249
ELEMENT_SET_NO = 999
REV_AT_EPOCH   = 320
BSTAR          = .31298284E-3
MEAN_MOTION_DOT = .4077E-4
MEAN_MOTION_DDOT = 0

CCSDS_OMM_VERS = 2.0
CREATION_DATE  = 
ORIGINATOR     = 

OBJECT_NAME    = 2025-313C
OBJECT_ID      = 2025-313C
CENTER_NAME    = EARTH
REF_FRAME      = TEME
TIME_SYSTEM    = UTC
MEAN_ELEMENT_THEORY = SGP/SGP4

EPOCH          = 2026-01-19T05:55:52.397472
MEAN_MOTION    = 14.84798176
ECCENTRICITY   = .01627019
INCLINATION    = 97.6358
RA_OF_ASC_NODE = 95.8686
ARG_OF_PERICENTER = 109.0917
MEAN_ANOMALY   = 252.7996

EPHEMERIS_TYPE = 0
CLASSIFICATION_TYPE = U
NORAD_CAT_ID   = 67250
ELEMENT_SET_NO = 999
REV_AT_EPOCH   = 322
BSTAR          = .15098108E-2
MEAN_MOTION_DOT = .16226E-3
MEAN_MOTION_DDOT = 0

CCSDS_OMM_VERS = 2.0
CREATION_DATE  = 
ORIGINATOR     = 

OBJECT_NAME    = 2025-313D
OBJECT_ID      = 2025-313D
CENTER_NAME    = EARTH
REF_FRAME      = TEME
TIME_SYSTEM    = UTC
MEAN_ELEMENT_THEORY = SGP/SGP4

EPOCH          = 2026-01-19T06:03:29.119968
MEAN_MOTION    = 14.88765993
ECCENTRICITY   = .01524371
INCLINATION    = 97.5869
RA_OF_ASC_NODE = 95.8618
ARG_OF_PERICENTER = 101.6365
MEAN_ANOMALY   = 260.2006

EPHEMERIS_TYPE = 0
CLASSIFICATION_TYPE = U
NORAD_CAT_ID   = 67251
ELEMENT_SET_NO = 999
REV_AT_EPOCH   = 323
BSTAR          = .25682597E-3
MEAN_MOTION_DOT = .2925E-4
MEAN_MOTION_DDOT = 0

